[{"OBJECT_NAME":"STARLINK-4567","OBJECT_ID":"2022-125G","EPOCH":"2026-03-09T15:15:13.159872","MEAN_MOTION":15.08837522,"ECCENTRICITY":0.0001176,"INCLINATION":53.2175,"RA_OF_ASC_NODE":219.4049,"ARG_OF_PERICENTER":75.709,"MEAN_ANOMALY":284.4032,"EPHEMERIS_TYPE":0,"CLASSIFICATION_TYPE":"U","NORAD_CAT_ID":53970,"ELEMENT_SET_NO":999,"REV_AT_EPOCH":18939,"BSTAR":-0.00011837,"MEAN_MOTION_DOT":-2.171e-5,"MEAN_MOTION_DDOT":0},{"OBJECT_NAME":"MINOTAUR 4 R\/B","OBJECT_ID":"2020-046E","EPOCH":"2026-03-09T23:21:28.488960","MEAN_MOTION":15.06543892,"ECCENTRICITY":0.00095926,"INCLINATION":53.9792,"RA_OF_ASC_NODE":306.0413,"ARG_OF_PERICENTER":86.078,"MEAN_ANOMALY":274.1318,"EPHEMERIS_TYPE":0,"CLASSIFICATION_TYPE":"U","NORAD_CAT_ID":45877,"ELEMENT_SET_NO":999,"REV_AT_EPOCH":23396,"BSTAR":0.00016618262,"MEAN_MOTION_DOT":2.204e-5,"MEAN_MOTION_DDOT":0}]
